{
  "type": "FeatureCollection",
  "features": [
    {
      "type": "Feature",
      "properties": {
        "norad_id": 66704,
        "name": "FLOCK 4H-1",
        "group": "last-30-days",
        "lat": -37.7985267314676,
        "lon": 76.17058792364644,
        "alt_km": 519.3269535368554,
        "timestamp": "2025-12-24T18:55:54.775501+00:00",
        "meta_object_name": "FLOCK 4H-1",
        "meta_object_id": "2025-276AQ",
        "meta_epoch": "2025-12-24T06:26:40.027776",
        "meta_mean_motion": 15.18107588,
        "meta_eccentricity": 0.0002065,
        "meta_inclination": 97.4381,
        "meta_ra_of_asc_node": 69.8432,
        "meta_arg_of_pericenter": 164.8909,
        "meta_mean_anomaly": 195.2387,
        "meta_ephemeris_type": 0,
        "meta_classification_type": "U",
        "meta_norad_cat_id": 66704,
        "meta_element_set_no": 999,
        "meta_rev_at_epoch": 387,
        "meta_bstar": 0.00056015696,
        "meta_mean_motion_dot": 0.00011367,
        "meta_mean_motion_ddot": 0,
        "tle_line1": "1 66704U 25276AQ  25358.26851884  .00011367  00000+0  56016-3 0  9998",
        "tle_line2": "2 66704  97.4381  69.8432 0002065 164.8909 195.2387 15.18107588  3876"
      },
      "geometry": {
        "type": "Point",
        "coordinates": [
          76.17058792364644,
          -37.7985267314676
        ]
      }
    },
    {
      "type": "Feature",
      "properties": {
        "norad_id": 66705,
        "name": "FLOCK 4H-2",
        "group": "last-30-days",
        "lat": -34.9621481060066,
        "lon": 75.59676659393544,
        "alt_km": 518.683571671103,
        "timestamp": "2025-12-24T18:55:54.775511+00:00",
        "meta_object_name": "FLOCK 4H-2",
        "meta_object_id": "2025-276AR",
        "meta_epoch": "2025-12-24T06:25:55.813440",
        "meta_mean_motion": 15.18155807,
        "meta_eccentricity": 0.00014194,
        "meta_inclination": 97.4376,
        "meta_ra_of_asc_node": 69.8439,
        "meta_arg_of_pericenter": 154.1923,
        "meta_mean_anomaly": 205.9382,
        "meta_ephemeris_type": 0,
        "meta_classification_type": "U",
        "meta_norad_cat_id": 66705,
        "meta_element_set_no": 999,
        "meta_rev_at_epoch": 387,
        "meta_bstar": 0.0004423614,
        "meta_mean_motion_dot": 8.972e-05,
        "meta_mean_motion_ddot": 0,
        "tle_line1": "1 66705U 25276AR  25358.26800710  .00008972  00000+0  44236-3 0  9990",
        "tle_line2": "2 66705  97.4376  69.8439 0001419 154.1923 205.9382 15.18155807  3879"
      },
      "geometry": {
        "type": "Point",
        "coordinates": [
          75.59676659393544,
          -34.9621481060066
        ]
      }
    },
    {
      "type": "Feature",
      "properties": {
        "norad_id": 66706,
        "name": "FLOCK 4H-3",
        "group": "last-30-days",
        "lat": -81.41560328190567,
        "lon": -169.65825403290836,
        "alt_km": 518.980073020678,
        "timestamp": "2025-12-24T18:55:54.775521+00:00",
        "meta_object_name": "FLOCK 4H-3",
        "meta_object_id": "2025-276AS",
        "meta_epoch": "2025-12-24T05:06:13.666752",
        "meta_mean_motion": 15.17490569,
        "meta_eccentricity": 0.00029546,
        "meta_inclination": 97.4441,
        "meta_ra_of_asc_node": 69.7893,
        "meta_arg_of_pericenter": 239.3918,
        "meta_mean_anomaly": 120.7024,
        "meta_ephemeris_type": 0,
        "meta_classification_type": "U",
        "meta_norad_cat_id": 66706,
        "meta_element_set_no": 999,
        "meta_rev_at_epoch": 386,
        "meta_bstar": 0.00031319213,
        "meta_mean_motion_dot": 6.21e-05,
        "meta_mean_motion_ddot": 0,
        "tle_line1": "1 66706U 25276AS  25358.21265818  .00006210  00000+0  31319-3 0  9991",
        "tle_line2": "2 66706  97.4441  69.7893 0002954 239.3918 120.7024 15.17490569  3863"
      },
      "geometry": {
        "type": "Point",
        "coordinates": [
          -169.65825403290836,
          -81.41560328190567
        ]
      }
    },
    {
      "type": "Feature",
      "properties": {
        "norad_id": 66707,
        "name": "FLOCK 4H-4",
        "group": "last-30-days",
        "lat": -61.56884345804749,
        "lon": -123.63253082616633,
        "alt_km": 518.873404362922,
        "timestamp": "2025-12-24T18:55:54.775531+00:00",
        "meta_object_name": "FLOCK 4H-4",
        "meta_object_id": "2025-276AT",
        "meta_epoch": "2025-12-24T05:12:13.396608",
        "meta_mean_motion": 15.17227457,
        "meta_eccentricity": 0.00036438,
        "meta_inclination": 97.4425,
        "meta_ra_of_asc_node": 69.7779,
        "meta_arg_of_pericenter": 244.7636,
        "meta_mean_anomaly": 115.322,
        "meta_ephemeris_type": 0,
        "meta_classification_type": "U",
        "meta_norad_cat_id": 66707,
        "meta_element_set_no": 999,
        "meta_rev_at_epoch": 386,
        "meta_bstar": 0.0005621892,
        "meta_mean_motion_dot": 0.00011124,
        "meta_mean_motion_ddot": 0,
        "tle_line1": "1 66707U 25276AT  25358.21682172  .00011124  00000+0  56219-3 0  9994",
        "tle_line2": "2 66707  97.4425  69.7779 0003643 244.7636 115.3220 15.17227457  3864"
      },
      "geometry": {
        "type": "Point",
        "coordinates": [
          -123.63253082616633,
          -61.56884345804749
        ]
      }
    },
    {
      "type": "Feature",
      "properties": {
        "norad_id": 66708,
        "name": "FLOCK 4H-5",
        "group": "last-30-days",
        "lat": -28.329832809849215,
        "lon": 74.40101947894975,
        "alt_km": 517.9723916295052,
        "timestamp": "2025-12-24T18:55:54.775555+00:00",
        "meta_object_name": "FLOCK 4H-5",
        "meta_object_id": "2025-276AU",
        "meta_epoch": "2025-12-24T06:24:10.440864",
        "meta_mean_motion": 15.18187007,
        "meta_eccentricity": 0.000127,
        "meta_inclination": 97.4382,
        "meta_ra_of_asc_node": 69.8489,
        "meta_arg_of_pericenter": 124.4743,
        "meta_mean_anomaly": 235.6611,
        "meta_ephemeris_type": 0,
        "meta_classification_type": "U",
        "meta_norad_cat_id": 66708,
        "meta_element_set_no": 999,
        "meta_rev_at_epoch": 387,
        "meta_bstar": 0.00054114407,
        "meta_mean_motion_dot": 0.00011003,
        "meta_mean_motion_ddot": 0,
        "tle_line1": "1 66708U 25276AU  25358.26678751  .00011003  00000+0  54114-3 0  9996",
        "tle_line2": "2 66708  97.4382  69.8489 0001270 124.4743 235.6611 15.18187007  3871"
      },
      "geometry": {
        "type": "Point",
        "coordinates": [
          74.40101947894975,
          -28.329832809849215
        ]
      }
    },
    {
      "type": "Feature",
      "properties": {
        "norad_id": 66709,
        "name": "FLOCK 4H-6",
        "group": "last-30-days",
        "lat": -49.68317539479374,
        "lon": 79.23503689272648,
        "alt_km": 519.7065800880273,
        "timestamp": "2025-12-24T18:55:54.775568+00:00",
        "meta_object_name": "FLOCK 4H-6",
        "meta_object_id": "2025-276AV",
        "meta_epoch": "2025-12-24T06:29:46.208544",
        "meta_mean_motion": 15.17928518,
        "meta_eccentricity": 0.00027568,
        "meta_inclination": 97.4431,
        "meta_ra_of_asc_node": 69.863,
        "meta_arg_of_pericenter": 200.2285,
        "meta_mean_anomaly": 159.884,
        "meta_ephemeris_type": 0,
        "meta_classification_type": "U",
        "meta_norad_cat_id": 66709,
        "meta_element_set_no": 999,
        "meta_rev_at_epoch": 387,
        "meta_bstar": 0.00040148741,
        "meta_mean_motion_dot": 8.083e-05,
        "meta_mean_motion_ddot": 0,
        "tle_line1": "1 66709U 25276AV  25358.27067371  .00008083  00000+0  40149-3 0  9995",
        "tle_line2": "2 66709  97.4431  69.8630 0002756 200.2285 159.8840 15.17928518  3879"
      },
      "geometry": {
        "type": "Point",
        "coordinates": [
          79.23503689272648,
          -49.68317539479374
        ]
      }
    },
    {
      "type": "Feature",
      "properties": {
        "norad_id": 66710,
        "name": "FLOCK 4H-7",
        "group": "last-30-days",
        "lat": -81.82908266151603,
        "lon": -175.1681174934855,
        "alt_km": 520.0482746310772,
        "timestamp": "2025-12-24T18:55:54.775579+00:00",
        "meta_object_name": "FLOCK 4H-7",
        "meta_object_id": "2025-276AW",
        "meta_epoch": "2025-12-24T05:05:59.702784",
        "meta_mean_motion": 15.17500392,
        "meta_eccentricity": 0.00010311,
        "meta_inclination": 97.4388,
        "meta_ra_of_asc_node": 69.7667,
        "meta_arg_of_pericenter": 280.5939,
        "meta_mean_anomaly": 79.5178,
        "meta_ephemeris_type": 0,
        "meta_classification_type": "U",
        "meta_norad_cat_id": 66710,
        "meta_element_set_no": 999,
        "meta_rev_at_epoch": 386,
        "meta_bstar": 0.00032298591,
        "meta_mean_motion_dot": 6.408e-05,
        "meta_mean_motion_ddot": 0,
        "tle_line1": "1 66710U 25276AW  25358.21249656  .00006408  00000+0  32299-3 0  9995",
        "tle_line2": "2 66710  97.4388  69.7667 0001031 280.5939  79.5178 15.17500392  3860"
      },
      "geometry": {
        "type": "Point",
        "coordinates": [
          -175.1681174934855,
          -81.82908266151603
        ]
      }
    }
  ]
}